{
"type": "FeatureCollection",
"name": "Restaurantsfinalv3",
"crs": { "type": "name", "properties": { "name": "urn:ogc:def:crs:OGC:1.3:CRS84" } },
"features": [
{ "type": "Feature", "properties": { "id": 1, "Name": "Zakir Seekh Paratha", "layer": "restaurant"}, "geometry": { "type": "Point", "coordinates": [ 72.877423005421235, 19.078127774668328 ] } },
{ "type": "Feature", "properties": { "id": 2, "Name": "Mughal Dhaba", "layer": "restaurant"}, "geometry": { "type": "Point", "coordinates": [ 72.877832777871333, 19.076607043411492 ] } },
{ "type": "Feature", "properties": { "id": 3, "Name": "Nawab Seekh", "layer": "restaurant"}, "geometry": { "type": "Point", "coordinates": [ 72.878742272821555, 19.076729835894383 ] } },
{ "type": "Feature", "properties": { "id": 4, "Name": "Serai Family Skydine", "layer": "restaurant"}, "geometry": { "type": "Point", "coordinates": [ 72.879631778871754, 19.078448921098829 ] } },
{ "type": "Feature", "properties": { "id": 5, "Name": "Mubarak Restaurant", "layer": "restaurant"}, "geometry": { "type": "Point", "coordinates": [ 72.874744492820611, 19.073754453965218 ] } },
{ "type": "Feature", "properties": { "id": 6, "Name": "Persian Darbar", "layer": "restaurant"}, "geometry": { "type": "Point", "coordinates": [ 72.876933277371123, 19.075964742787178 ] } },
{ "type": "Feature", "properties": { "id": 7, "Name": "Deluxe Restaurant", "layer": "restaurant"}, "geometry": { "type": "Point", "coordinates": [ 72.875942329009106, 19.072574960170549 ] } },
{ "type": "Feature", "properties": { "id": 8, "Name": "Wild N Wise Cafe", "layer": "restaurant"}, "geometry": { "type": "Point", "coordinates": [ 72.878764831125864, 19.072864580942667 ] } },
{ "type": "Feature", "properties": { "id": 9, "Name": "GSK Juice Center", "layer": "restaurant"}, "geometry": { "type": "Point", "coordinates": [ 72.874796390707829, 19.067560706989127 ] } },
{ "type": "Feature", "properties": { "id": 10, "Name": "Madeena Hotel", "layer": "restaurant"}, "geometry": { "type": "Point", "coordinates": [ 72.882512273507999, 19.069494021080047 ] } },
{ "type": "Feature", "properties": { "id": 11, "Name": "Shalimar Restaurant", "layer": "restaurant"}, "geometry": { "type": "Point", "coordinates": [ 72.87960821871782, 19.066288513913477 ] } },
{ "type": "Feature", "properties": { "id": 12, "Name": "Tabela Chai", "layer": "restaurant"}, "geometry": { "type": "Point", "coordinates": [ 72.878928032924108, 19.068028776570618 ] } },
{ "type": "Feature", "properties": { "id": 1, "Name": "Earth Cafe @ BKC", "layer": "restaurant", "path": "restaurantsleft.geojson" }, "geometry": { "type": "Point", "coordinates": [ 72.866164170906799, 19.067509188342601 ] } },
{ "type": "Feature", "properties": { "id": 2, "Name": "O Pedro - BKC", "layer": "restaurant", "path": "restaurantsleft.geojson" }, "geometry": { "type": "Point", "coordinates": [ 72.86494151873697, 19.059440147599858 ] } },
{ "type": "Feature", "properties": { "id": 3, "Name": "Yauatcha", "layer": "restaurant", "path": "restaurantsleft.geojson" }, "geometry": { "type": "Point", "coordinates": [ 72.862954431813534, 19.060996954038444 ] } },
{ "type": "Feature", "properties": { "id": 4, "Name": "Capital Social", "layer": "restaurant", "path": "restaurantsleft.geojson" }, "geometry": { "type": "Point", "coordinates": [ 72.862372717157015, 19.063735940782124 ] } },
{ "type": "Feature", "properties": { "id": 5, "Name": "Spice House", "layer": "restaurant", "path": "restaurantsleft.geojson" }, "geometry": { "type": "Point", "coordinates": [ 72.864107407822132, 19.065550544844719 ] } },
{ "type": "Feature", "properties": { "id": 6, "Name": "Bawri", "layer": "restaurant", "path": "restaurantsleft.geojson" }, "geometry": { "type": "Point", "coordinates": [ 72.866025400776422, 19.067183569276821 ] } },
{ "type": "Feature", "properties": { "id": 7, "Name": "Baglami", "layer": "restaurant", "path": "restaurantsleft.geojson" }, "geometry": { "type": "Point", "coordinates": [ 72.866610295569217, 19.066898790582485 ] } },
{ "type": "Feature", "properties": { "id": 8, "Name": "CinCin", "layer": "restaurant", "path": "restaurantsleft.geojson" }, "geometry": { "type": "Point", "coordinates": [ 72.862761188368424, 19.061144515786452 ] } },
{ "type": "Feature", "properties": { "id": 9, "Name": "SupaSan", "layer": "restaurant", "path": "restaurantsleft.geojson" }, "geometry": { "type": "Point", "coordinates": [ 72.862671205791855, 19.061125959664864 ] } },
{ "type": "Feature", "properties": { "id": 10, "Name": "Nara Thai", "layer": "restaurant", "path": "restaurantsleft.geojson" }, "geometry": { "type": "Point", "coordinates": [ 72.862767732555824, 19.061085754727632 ] } },
{ "type": "Feature", "properties": { "id": 11, "Name": "McDonald's", "layer": "restaurant", "path": "restaurantsleft.geojson" }, "geometry": { "type": "Point", "coordinates": [ 72.866784841157383, 19.073067321238476 ] } },
{ "type": "Feature", "properties": { "id": 12, "Name": "BaskinRobbins", "layer": "restaurant", "path": "restaurantsleft.geojson" }, "geometry": { "type": "Point", "coordinates": [ 72.865677600046425, 19.076117198701954 ] } },
{ "type": "Feature", "properties": { "id": 13, "Name": "Mani's Cafe", "layer": "restaurant", "path": "restaurantsleft.geojson" }, "geometry": { "type": "Point", "coordinates": [ 72.861323554648791, 19.073067546438455 ] } },
{ "type": "Feature", "properties": { "id": 14, "Name": "JioMall Food Court", "layer": "restaurant", "path": "restaurantsleft.geojson" }, "geometry": { "type": "Point", "coordinates": [ 72.867116475672006, 19.065547879928705 ] } },
{ "type": "Feature", "properties": { "id": 15, "Name": "Smoke House Deli", "layer": "restaurant", "path": "restaurantsleft.geojson" }, "geometry": { "type": "Point", "coordinates": [ 72.869720264667137, 19.069181069725079 ] } },
{ "type": "Feature", "properties": { "id": 16, "Name": "Amazonia", "layer": "restaurant", "path": "restaurantsleft.geojson" }, "geometry": { "type": "Point", "coordinates": [ 72.865272681902482, 19.059259072464599 ] } },
{ "type": "Feature", "properties": { "id": 17, "Name": "Pret", "layer": "restaurant", "path": "restaurantsleft.geojson" }, "geometry": { "type": "Point", "coordinates": [ 72.866888258432141, 19.066706871119258 ] } },
{ "type": "Feature", "properties": { "id": 18, "Name": "Blue Tokai", "layer": "restaurant", "path": "restaurantsleft.geojson" }, "geometry": { "type": "Point", "coordinates": [ 72.851276566901191, 19.054566783303166 ] } },
{ "type": "Feature", "properties": { "id": 19, "Name": "Pret", "layer": "restaurant", "path": "restaurantsleft.geojson" }, "geometry": { "type": "Point", "coordinates": [ 72.85083786113141, 19.054356369829733 ] } },
{ "type": "Feature", "properties": { "id": 20, "Name": "Jio Mall Food Court", "layer": "restaurant", "path": "restaurantsleft.geojson" }, "geometry": { "type": "Point", "coordinates": [ 72.851371654962051, 19.053668334557742 ] } },
{ "type": "Feature", "properties": { "id": 21, "Name": "Bayroute", "layer": "restaurant", "path": "restaurantsleft.geojson" }, "geometry": { "type": "Point", "coordinates": [ 72.850410307767362, 19.054915162115854 ] } }
]
}
