{
"type": "FeatureCollection",
"name": "Restaurantsfinalv2",
"crs": { "type": "name", "properties": { "name": "urn:ogc:def:crs:EPSG::3857" } },
"features": [
{ "type": "Feature", "properties": { "id": 1, "Name": null, "layer": "restaurant" }, "geometry": { "type": "Point", "coordinates": [ 8112385.741419658996165, 2162895.348693003412336 ] } },
{ "type": "Feature", "properties": { "id": 2, "Name": null, "layer": "restaurant" }, "geometry": { "type": "Point", "coordinates": [ 8112510.967502051964402, 2163488.875860592350364 ] } },
{ "type": "Feature", "properties": { "id": 3, "Name": null, "layer": "restaurant" }, "geometry": { "type": "Point", "coordinates": [ 8112377.354917263612151, 2163623.027205802965909 ] } },
{ "type": "Feature", "properties": { "id": 4, "Name": null, "layer": "restaurant" }, "geometry": { "type": "Point", "coordinates": [ 8112918.100320426747203, 2162741.961004965007305 ] } },
{ "type": "Feature", "properties": { "id": 5, "Name": null, "layer": "restaurant" }, "geometry": { "type": "Point", "coordinates": [ 8112842.487252214923501, 2162954.622759316582233 ] } },
{ "type": "Feature", "properties": { "id": 6, "Name": null, "layer": "restaurant" }, "geometry": { "type": "Point", "coordinates": [ 8112828.309801923111081, 2163524.083679300732911 ] } },
{ "type": "Feature", "properties": { "id": 7, "Name": null, "layer": "restaurant" }, "geometry": { "type": "Point", "coordinates": [ 8112623.918226907961071, 2163880.882844933774322 ] } },
{ "type": "Feature", "properties": { "id": 8, "Name": null, "layer": "restaurant" }, "geometry": { "type": "Point", "coordinates": [ 8112984.261755113489926, 2162530.480704805348068 ] } },
{ "type": "Feature", "properties": { "id": 9, "Name": null, "layer": "restaurant" }, "geometry": { "type": "Point", "coordinates": [ 8112938.185041670687497, 2162471.407995263114572 ] } },
{ "type": "Feature", "properties": { "id": 10, "Name": null, "layer": "restaurant" }, "geometry": { "type": "Point", "coordinates": [ 8113333.972195602022111, 2162599.005047874990851 ] } },
{ "type": "Feature", "properties": { "id": 11, "Name": null, "layer": "restaurant" }, "geometry": { "type": "Point", "coordinates": [ 8113238.274406144395471, 2162554.10978862317279 ] } },
{ "type": "Feature", "properties": { "id": 12, "Name": null, "layer": "restaurant" }, "geometry": { "type": "Point", "coordinates": [ 8113310.343111785128713, 2162328.452038173098117 ] } },
{ "type": "Feature", "properties": { "id": 13, "Name": null, "layer": "restaurant" }, "geometry": { "type": "Point", "coordinates": [ 8113089.345922437496483, 2161828.328222337178886 ] } },
{ "type": "Feature", "properties": { "id": 14, "Name": null, "layer": "restaurant" }, "geometry": { "type": "Point", "coordinates": [ 8111515.575706856325269, 2161163.451432653702796 ] } },
{ "type": "Feature", "properties": { "id": 15, "Name": null, "layer": "restaurant" }, "geometry": { "type": "Point", "coordinates": [ 8113814.541431183926761, 2162903.098125659395009 ] } },
{ "type": "Feature", "properties": { "id": 15, "Name": null, "layer": "restaurant" }, "geometry": { "type": "Point", "coordinates": [ 8113104.611775290220976, 2162572.088660289067775 ] } },
{ "type": "Feature", "properties": { "id": 16, "Name": null, "layer": "restaurant" }, "geometry": { "type": "Point", "coordinates": [ 8113242.714294264093041, 2163121.119342986494303 ] } },
{ "type": "Feature", "properties": { "id": 17, "Name": null, "layer": "restaurant" }, "geometry": { "type": "Point", "coordinates": [ 8112096.317568373866379, 2163792.849562040064484 ] } },
{ "type": "Feature", "properties": { "id": 1, "Name": "Earth Cafe @ BKC", "layer": "restaurant", "path": "restaurantsleft.geojson" }, "geometry": { "type": "Point", "coordinates": [ 8111424.291564419865608, 2162885.642650157678872 ] } },
{ "type": "Feature", "properties": { "id": 2, "Name": "O Pedro - BKC", "layer": "restaurant", "path": "restaurantsleft.geojson" }, "geometry": { "type": "Point", "coordinates": [ 8111288.186547458171844, 2161935.28074630908668 ] } },
{ "type": "Feature", "properties": { "id": 3, "Name": "Yauatcha", "layer": "restaurant", "path": "restaurantsleft.geojson" }, "geometry": { "type": "Point", "coordinates": [ 8111066.985042979009449, 2162118.635933588258922 ] } },
{ "type": "Feature", "properties": { "id": 4, "Name": "Capital Social", "layer": "restaurant", "path": "restaurantsleft.geojson" }, "geometry": { "type": "Point", "coordinates": [ 8111002.228863627649844, 2162441.228338179644197 ] } },
{ "type": "Feature", "properties": { "id": 5, "Name": "Spice House", "layer": "restaurant", "path": "restaurantsleft.geojson" }, "geometry": { "type": "Point", "coordinates": [ 8111195.333745153620839, 2162654.951726116240025 ] } },
{ "type": "Feature", "properties": { "id": 6, "Name": "Bawri", "layer": "restaurant", "path": "restaurantsleft.geojson" }, "geometry": { "type": "Point", "coordinates": [ 8111408.843744169920683, 2162847.290733004454523 ] } },
{ "type": "Feature", "properties": { "id": 7, "Name": "Baglami", "layer": "restaurant", "path": "restaurantsleft.geojson" }, "geometry": { "type": "Point", "coordinates": [ 8111473.953934671357274, 2162813.749119715765119 ] } },
{ "type": "Feature", "properties": { "id": 8, "Name": "CinCin", "layer": "restaurant", "path": "restaurantsleft.geojson" }, "geometry": { "type": "Point", "coordinates": [ 8111045.473281070590019, 2162136.015326626133174 ] } },
{ "type": "Feature", "properties": { "id": 9, "Name": "SupaSan", "layer": "restaurant", "path": "restaurantsleft.geojson" }, "geometry": { "type": "Point", "coordinates": [ 8111035.456466467119753, 2162133.829839803744107 ] } },
{ "type": "Feature", "properties": { "id": 10, "Name": "Nara Thai", "layer": "restaurant", "path": "restaurantsleft.geojson" }, "geometry": { "type": "Point", "coordinates": [ 8111046.201776678673923, 2162129.094618354458362 ] } },
{ "type": "Feature", "properties": { "id": 11, "Name": "McDonald's", "layer": "restaurant", "path": "restaurantsleft.geojson" }, "geometry": { "type": "Point", "coordinates": [ 8111493.384260665625334, 2163540.299758055247366 ] } },
{ "type": "Feature", "properties": { "id": 12, "Name": "BaskinRobbins", "layer": "restaurant", "path": "restaurantsleft.geojson" }, "geometry": { "type": "Point", "coordinates": [ 8111370.126744008623064, 2163899.534748131409287 ] } },
{ "type": "Feature", "properties": { "id": 13, "Name": "Mani's Cafe", "layer": "restaurant", "path": "restaurantsleft.geojson" }, "geometry": { "type": "Point", "coordinates": [ 8110885.436627453193069, 2163540.326283372938633 ] } },
{ "type": "Feature", "properties": { "id": 14, "Name": "JioMall Food Court", "layer": "restaurant", "path": "restaurantsleft.geojson" }, "geometry": { "type": "Point", "coordinates": [ 8111530.301645963452756, 2162654.637851588893682 ] } },
{ "type": "Feature", "properties": { "id": 15, "Name": "Smoke House Deli", "layer": "restaurant", "path": "restaurantsleft.geojson" }, "geometry": { "type": "Point", "coordinates": [ 8111820.154111033305526, 2163082.560611513908952 ] } },
{ "type": "Feature", "properties": { "id": 16, "Name": "Amazonia", "layer": "restaurant", "path": "restaurantsleft.geojson" }, "geometry": { "type": "Point", "coordinates": [ 8111325.051462411880493, 2161913.954465438146144 ] } },
{ "type": "Feature", "properties": { "id": 17, "Name": "Pret", "layer": "restaurant", "path": "restaurantsleft.geojson" }, "geometry": { "type": "Point", "coordinates": [ 8111504.896619030274451, 2162791.144622643478215 ] } },
{ "type": "Feature", "properties": { "id": 18, "Name": "Blue Tokai", "layer": "restaurant", "path": "restaurantsleft.geojson" }, "geometry": { "type": "Point", "coordinates": [ 8109767.011067384853959, 2161361.324164851102978 ] } },
{ "type": "Feature", "properties": { "id": 19, "Name": "Pret", "layer": "restaurant", "path": "restaurantsleft.geojson" }, "geometry": { "type": "Point", "coordinates": [ 8109718.174564484506845, 2161336.543266101740301 ] } },
{ "type": "Feature", "properties": { "id": 20, "Name": "Jio Mall Food Court", "layer": "restaurant", "path": "restaurantsleft.geojson" }, "geometry": { "type": "Point", "coordinates": [ 8109777.596221898682415, 2161255.511923567857593 ] } },
{ "type": "Feature", "properties": { "id": 21, "Name": "Bayroute", "layer": "restaurant", "path": "restaurantsleft.geojson" }, "geometry": { "type": "Point", "coordinates": [ 8109670.579541710205376, 2161402.353641164023429 ] } }
]
}
