{
"type": "FeatureCollection",
"name": "Restaurantsfinalv3",
"crs": { "type": "name", "properties": { "name": "urn:ogc:def:crs:OGC:1.3:CRS84" } },
"features": [
{ "type": "Feature", "properties": { "id": 1, "Name": null, "layer": "restaurant", "path": "C:/Users/anchi/Downloads/joijoijoij (1).geojson" }, "geometry": { "type": "Point", "coordinates": [ 72.87480102190554, 19.067591595401982 ] } },
{ "type": "Feature", "properties": { "id": 2, "Name": null, "layer": "restaurant", "path": "C:/Users/anchi/Downloads/joijoijoij (1).geojson" }, "geometry": { "type": "Point", "coordinates": [ 72.875925946943397, 19.072630731707264 ] } },
{ "type": "Feature", "properties": { "id": 3, "Name": null, "layer": "restaurant", "path": "C:/Users/anchi/Downloads/joijoijoij (1).geojson" }, "geometry": { "type": "Point", "coordinates": [ 72.874725684672725, 19.073769675888599 ] } },
{ "type": "Feature", "properties": { "id": 4, "Name": null, "layer": "restaurant", "path": "C:/Users/anchi/Downloads/joijoijoij (1).geojson" }, "geometry": { "type": "Point", "coordinates": [ 72.879583283277512, 19.066289285590717 ] } },
{ "type": "Feature", "properties": { "id": 5, "Name": null, "layer": "restaurant", "path": "C:/Users/anchi/Downloads/joijoijoij (1).geojson" }, "geometry": { "type": "Point", "coordinates": [ 72.878904039528976, 19.068094848164304 ] } },
{ "type": "Feature", "properties": { "id": 6, "Name": null, "layer": "restaurant", "path": "C:/Users/anchi/Downloads/joijoijoij (1).geojson" }, "geometry": { "type": "Point", "coordinates": [ 72.878776681326116, 19.072929646651648 ] } },
{ "type": "Feature", "properties": { "id": 7, "Name": null, "layer": "restaurant", "path": "C:/Users/anchi/Downloads/joijoijoij (1).geojson" }, "geometry": { "type": "Point", "coordinates": [ 72.876940600568304, 19.075958846858651 ] } },
{ "type": "Feature", "properties": { "id": 8, "Name": null, "layer": "restaurant", "path": "C:/Users/anchi/Downloads/joijoijoij (1).geojson" }, "geometry": { "type": "Point", "coordinates": [ 72.880177621557507, 19.064493734418217 ] } },
{ "type": "Feature", "properties": { "id": 9, "Name": null, "layer": "restaurant", "path": "C:/Users/anchi/Downloads/joijoijoij (1).geojson" }, "geometry": { "type": "Point", "coordinates": [ 72.879763707398226, 19.063992180336705 ] } },
{ "type": "Feature", "properties": { "id": 10, "Name": null, "layer": "restaurant", "path": "C:/Users/anchi/Downloads/joijoijoij (1).geojson" }, "geometry": { "type": "Point", "coordinates": [ 72.88331912389458, 19.065075535251911 ] } },
{ "type": "Feature", "properties": { "id": 11, "Name": null, "layer": "restaurant", "path": "C:/Users/anchi/Downloads/joijoijoij (1).geojson" }, "geometry": { "type": "Point", "coordinates": [ 72.882459456025302, 19.064694355625988 ] } },
{ "type": "Feature", "properties": { "id": 12, "Name": null, "layer": "restaurant", "path": "C:/Users/anchi/Downloads/joijoijoij (1).geojson" }, "geometry": { "type": "Point", "coordinates": [ 72.883106860223151, 19.062778413180812 ] } },
{ "type": "Feature", "properties": { "id": 13, "Name": null, "layer": "restaurant", "path": "C:/Users/anchi/Downloads/joijoijoij (1).geojson" }, "geometry": { "type": "Point", "coordinates": [ 72.881121608693761, 19.058532043401517 ] } },
{ "type": "Feature", "properties": { "id": 14, "Name": null, "layer": "restaurant", "path": "C:/Users/anchi/Downloads/joijoijoij (1).geojson" }, "geometry": { "type": "Point", "coordinates": [ 72.866984190310276, 19.052886647577058 ] } },
{ "type": "Feature", "properties": { "id": 15, "Name": null, "layer": "restaurant", "path": "C:/Users/anchi/Downloads/joijoijoij (1).geojson" }, "geometry": { "type": "Point", "coordinates": [ 72.88763615078858, 19.067657390255938 ] } },
{ "type": "Feature", "properties": { "id": 15, "Name": null, "layer": "restaurant", "path": "C:/Users/anchi/Downloads/joijoijoij (1).geojson" }, "geometry": { "type": "Point", "coordinates": [ 72.881258744183185, 19.06484700391032 ] } },
{ "type": "Feature", "properties": { "id": 16, "Name": null, "layer": "restaurant", "path": "C:/Users/anchi/Downloads/joijoijoij (1).geojson" }, "geometry": { "type": "Point", "coordinates": [ 72.882499340218885, 19.069508440758465 ] } },
{ "type": "Feature", "properties": { "id": 17, "Name": null, "layer": "restaurant", "path": "C:/Users/anchi/Downloads/joijoijoij (1).geojson" }, "geometry": { "type": "Point", "coordinates": [ 72.872201083213568, 19.075211455529569 ] } },
{ "type": "Feature", "properties": { "id": 1, "Name": "Earth Cafe @ BKC", "layer": "restaurant", "path": "restaurantsleft.geojson" }, "geometry": { "type": "Point", "coordinates": [ 72.866164170906799, 19.067509188342601 ] } },
{ "type": "Feature", "properties": { "id": 2, "Name": "O Pedro - BKC", "layer": "restaurant", "path": "restaurantsleft.geojson" }, "geometry": { "type": "Point", "coordinates": [ 72.86494151873697, 19.059440147599858 ] } },
{ "type": "Feature", "properties": { "id": 3, "Name": "Yauatcha", "layer": "restaurant", "path": "restaurantsleft.geojson" }, "geometry": { "type": "Point", "coordinates": [ 72.862954431813534, 19.060996954038444 ] } },
{ "type": "Feature", "properties": { "id": 4, "Name": "Capital Social", "layer": "restaurant", "path": "restaurantsleft.geojson" }, "geometry": { "type": "Point", "coordinates": [ 72.862372717157015, 19.063735940782124 ] } },
{ "type": "Feature", "properties": { "id": 5, "Name": "Spice House", "layer": "restaurant", "path": "restaurantsleft.geojson" }, "geometry": { "type": "Point", "coordinates": [ 72.864107407822132, 19.065550544844719 ] } },
{ "type": "Feature", "properties": { "id": 6, "Name": "Bawri", "layer": "restaurant", "path": "restaurantsleft.geojson" }, "geometry": { "type": "Point", "coordinates": [ 72.866025400776422, 19.067183569276821 ] } },
{ "type": "Feature", "properties": { "id": 7, "Name": "Baglami", "layer": "restaurant", "path": "restaurantsleft.geojson" }, "geometry": { "type": "Point", "coordinates": [ 72.866610295569217, 19.066898790582485 ] } },
{ "type": "Feature", "properties": { "id": 8, "Name": "CinCin", "layer": "restaurant", "path": "restaurantsleft.geojson" }, "geometry": { "type": "Point", "coordinates": [ 72.862761188368424, 19.061144515786452 ] } },
{ "type": "Feature", "properties": { "id": 9, "Name": "SupaSan", "layer": "restaurant", "path": "restaurantsleft.geojson" }, "geometry": { "type": "Point", "coordinates": [ 72.862671205791855, 19.061125959664864 ] } },
{ "type": "Feature", "properties": { "id": 10, "Name": "Nara Thai", "layer": "restaurant", "path": "restaurantsleft.geojson" }, "geometry": { "type": "Point", "coordinates": [ 72.862767732555824, 19.061085754727632 ] } },
{ "type": "Feature", "properties": { "id": 11, "Name": "McDonald's", "layer": "restaurant", "path": "restaurantsleft.geojson" }, "geometry": { "type": "Point", "coordinates": [ 72.866784841157383, 19.073067321238476 ] } },
{ "type": "Feature", "properties": { "id": 12, "Name": "BaskinRobbins", "layer": "restaurant", "path": "restaurantsleft.geojson" }, "geometry": { "type": "Point", "coordinates": [ 72.865677600046425, 19.076117198701954 ] } },
{ "type": "Feature", "properties": { "id": 13, "Name": "Mani's Cafe", "layer": "restaurant", "path": "restaurantsleft.geojson" }, "geometry": { "type": "Point", "coordinates": [ 72.861323554648791, 19.073067546438455 ] } },
{ "type": "Feature", "properties": { "id": 14, "Name": "JioMall Food Court", "layer": "restaurant", "path": "restaurantsleft.geojson" }, "geometry": { "type": "Point", "coordinates": [ 72.867116475672006, 19.065547879928705 ] } },
{ "type": "Feature", "properties": { "id": 15, "Name": "Smoke House Deli", "layer": "restaurant", "path": "restaurantsleft.geojson" }, "geometry": { "type": "Point", "coordinates": [ 72.869720264667137, 19.069181069725079 ] } },
{ "type": "Feature", "properties": { "id": 16, "Name": "Amazonia", "layer": "restaurant", "path": "restaurantsleft.geojson" }, "geometry": { "type": "Point", "coordinates": [ 72.865272681902482, 19.059259072464599 ] } },
{ "type": "Feature", "properties": { "id": 17, "Name": "Pret", "layer": "restaurant", "path": "restaurantsleft.geojson" }, "geometry": { "type": "Point", "coordinates": [ 72.866888258432141, 19.066706871119258 ] } },
{ "type": "Feature", "properties": { "id": 18, "Name": "Blue Tokai", "layer": "restaurant", "path": "restaurantsleft.geojson" }, "geometry": { "type": "Point", "coordinates": [ 72.851276566901191, 19.054566783303166 ] } },
{ "type": "Feature", "properties": { "id": 19, "Name": "Pret", "layer": "restaurant", "path": "restaurantsleft.geojson" }, "geometry": { "type": "Point", "coordinates": [ 72.85083786113141, 19.054356369829733 ] } },
{ "type": "Feature", "properties": { "id": 20, "Name": "Jio Mall Food Court", "layer": "restaurant", "path": "restaurantsleft.geojson" }, "geometry": { "type": "Point", "coordinates": [ 72.851371654962051, 19.053668334557742 ] } },
{ "type": "Feature", "properties": { "id": 21, "Name": "Bayroute", "layer": "restaurant", "path": "restaurantsleft.geojson" }, "geometry": { "type": "Point", "coordinates": [ 72.850410307767362, 19.054915162115854 ] } }
]
}
